[{"OBJECT_NAME":"HTV-X1","OBJECT_ID":"2025-241A","EPOCH":"2026-03-04T20:48:04.408416","MEAN_MOTION":15.48447334,"ECCENTRICITY":0.0008177,"INCLINATION":51.6315,"RA_OF_ASC_NODE":96.2009,"ARG_OF_PERICENTER":157.5272,"MEAN_ANOMALY":202.6076,"EPHEMERIS_TYPE":0,"CLASSIFICATION_TYPE":"U","NORAD_CAT_ID":66174,"ELEMENT_SET_NO":999,"REV_AT_EPOCH":55546,"BSTAR":0.00017477,"MEAN_MOTION_DOT":9.014e-5,"MEAN_MOTION_DDOT":0},{"OBJECT_NAME":"SZ-21 MODULE","OBJECT_ID":"2025-246C","EPOCH":"2026-03-05T04:05:15.475200","MEAN_MOTION":15.68139607,"ECCENTRICITY":0.0001469,"INCLINATION":41.4734,"RA_OF_ASC_NODE":231.173,"ARG_OF_PERICENTER":290.314,"MEAN_ANOMALY":69.7543,"EPHEMERIS_TYPE":0,"CLASSIFICATION_TYPE":"U","NORAD_CAT_ID":66515,"ELEMENT_SET_NO":999,"REV_AT_EPOCH":1736,"BSTAR":0.00035896,"MEAN_MOTION_DOT":0.00041059,"MEAN_MOTION_DDOT":0},{"OBJECT_NAME":"SHENZHOU-22","OBJECT_ID":"2025-272A","EPOCH":"2026-03-04T21:58:42.572928","MEAN_MOTION":15.60409426,"ECCENTRICITY":0.0006804,"INCLINATION":41.4655,"RA_OF_ASC_NODE":237.2033,"ARG_OF_PERICENTER":243.7896,"MEAN_ANOMALY":116.2243,"EPHEMERIS_TYPE":0,"CLASSIFICATION_TYPE":"U","NORAD_CAT_ID":66645,"ELEMENT_SET_NO":999,"REV_AT_EPOCH":26843,"BSTAR":0.00026479,"MEAN_MOTION_DOT":0.00022117,"MEAN_MOTION_DDOT":0},{"OBJECT_NAME":"SOYUZ-MS 28","OBJECT_ID":"2025-275A","EPOCH":"2026-03-04T20:48:04.408416","MEAN_MOTION":15.48447334,"ECCENTRICITY":0.0008177,"INCLINATION":51.6315,"RA_OF_ASC_NODE":96.2009,"ARG_OF_PERICENTER":157.5272,"MEAN_ANOMALY":202.6076,"EPHEMERIS_TYPE":0,"CLASSIFICATION_TYPE":"U","NORAD_CAT_ID":66664,"ELEMENT_SET_NO":999,"REV_AT_EPOCH":55558,"BSTAR":0.00017477,"MEAN_MOTION_DOT":9.014e-5,"MEAN_MOTION_DDOT":0},{"OBJECT_NAME":"DUPLEX","OBJECT_ID":"1998-067XS","EPOCH":"2026-03-04T09:12:56.728224","MEAN_MOTION":15.55826494,"ECCENTRICITY":0.00020746,"INCLINATION":51.6284,"RA_OF_ASC_NODE":95.9816,"ARG_OF_PERICENTER":91.8511,"MEAN_ANOMALY":268.2718,"EPHEMERIS_TYPE":0,"CLASSIFICATION_TYPE":"U","NORAD_CAT_ID":66906,"ELEMENT_SET_NO":999,"REV_AT_EPOCH":1430,"BSTAR":0.00060283877,"MEAN_MOTION_DOT":0.00042212,"MEAN_MOTION_DDOT":0},{"OBJECT_NAME":"ISS OBJECT XT","OBJECT_ID":"1998-067XT","EPOCH":"2026-03-05T01:24:57.565440","MEAN_MOTION":15.67662291,"ECCENTRICITY":0.0004673,"INCLINATION":51.625,"RA_OF_ASC_NODE":89.2282,"ARG_OF_PERICENTER":49.4593,"MEAN_ANOMALY":310.6809,"EPHEMERIS_TYPE":0,"CLASSIFICATION_TYPE":"U","NORAD_CAT_ID":66907,"ELEMENT_SET_NO":999,"REV_AT_EPOCH":1445,"BSTAR":0.0013459,"MEAN_MOTION_DOT":0.00152406,"MEAN_MOTION_DDOT":0},{"OBJECT_NAME":"ISS OBJECT XU","OBJECT_ID":"1998-067XU","EPOCH":"2026-03-04T07:01:15.985632","MEAN_MOTION":15.67514512,"ECCENTRICITY":0.0004676,"INCLINATION":51.6245,"RA_OF_ASC_NODE":93.1068,"ARG_OF_PERICENTER":47.0078,"MEAN_ANOMALY":313.1309,"EPHEMERIS_TYPE":0,"CLASSIFICATION_TYPE":"U","NORAD_CAT_ID":66908,"ELEMENT_SET_NO":999,"REV_AT_EPOCH":1433,"BSTAR":0.0016844747,"MEAN_MOTION_DOT":0.00190633,"MEAN_MOTION_DDOT":0},{"OBJECT_NAME":"SILVERSAT","OBJECT_ID":"1998-067XV","EPOCH":"2026-03-05T01:35:59.450784","MEAN_MOTION":15.70274385,"ECCENTRICITY":0.0005454,"INCLINATION":51.624,"RA_OF_ASC_NODE":88.5241,"ARG_OF_PERICENTER":48.4594,"MEAN_ANOMALY":311.6871,"EPHEMERIS_TYPE":0,"CLASSIFICATION_TYPE":"U","NORAD_CAT_ID":66909,"ELEMENT_SET_NO":999,"REV_AT_EPOCH":1446,"BSTAR":0.0015169,"MEAN_MOTION_DOT":0.0019237,"MEAN_MOTION_DDOT":0},{"OBJECT_NAME":"ISS OBJECT XW","OBJECT_ID":"1998-067XW","EPOCH":"2026-03-05T02:46:54.367392","MEAN_MOTION":15.67168972,"ECCENTRICITY":0.0005012,"INCLINATION":51.6242,"RA_OF_ASC_NODE":88.8496,"ARG_OF_PERICENTER":59.2455,"MEAN_ANOMALY":300.9034,"EPHEMERIS_TYPE":0,"CLASSIFICATION_TYPE":"U","NORAD_CAT_ID":66910,"ELEMENT_SET_NO":999,"REV_AT_EPOCH":1446,"BSTAR":0.0012326,"MEAN_MOTION_DOT":0.00136506,"MEAN_MOTION_DDOT":0},{"OBJECT_NAME":"ISS OBJECT XX","OBJECT_ID":"1998-067XX","EPOCH":"2026-03-05T01:43:52.114944","MEAN_MOTION":15.72901733,"ECCENTRICITY":0.0007044,"INCLINATION":51.621,"RA_OF_ASC_NODE":87.7948,"ARG_OF_PERICENTER":55.4619,"MEAN_ANOMALY":304.7043,"EPHEMERIS_TYPE":0,"CLASSIFICATION_TYPE":"U","NORAD_CAT_ID":66911,"ELEMENT_SET_NO":999,"REV_AT_EPOCH":1446,"BSTAR":0.0016693,"MEAN_MOTION_DOT":0.0023802,"MEAN_MOTION_DDOT":0},{"OBJECT_NAME":"ISS OBJECT XY","OBJECT_ID":"1998-067XY","EPOCH":"2026-03-05T02:33:27.511488","MEAN_MOTION":15.62727645,"ECCENTRICITY":0.0003046,"INCLINATION":51.6265,"RA_OF_ASC_NODE":90.3029,"ARG_OF_PERICENTER":62.7739,"MEAN_ANOMALY":297.3566,"EPHEMERIS_TYPE":0,"CLASSIFICATION_TYPE":"U","NORAD_CAT_ID":66912,"ELEMENT_SET_NO":999,"REV_AT_EPOCH":1443,"BSTAR":0.0010104,"MEAN_MOTION_DOT":0.00093092,"MEAN_MOTION_DDOT":0},{"OBJECT_NAME":"ISS OBJECT XZ","OBJECT_ID":"1998-067XZ","EPOCH":"2026-03-04T07:37:01.846272","MEAN_MOTION":15.5133766,"ECCENTRICITY":0.00094914,"INCLINATION":51.6304,"RA_OF_ASC_NODE":98.5346,"ARG_OF_PERICENTER":167.7937,"MEAN_ANOMALY":192.3284,"EPHEMERIS_TYPE":0,"CLASSIFICATION_TYPE":"U","NORAD_CAT_ID":67683,"ELEMENT_SET_NO":999,"REV_AT_EPOCH":395,"BSTAR":0.00087420501,"MEAN_MOTION_DOT":0.00052289,"MEAN_MOTION_DDOT":0},{"OBJECT_NAME":"GXIBA-1","OBJECT_ID":"1998-067YA","EPOCH":"2026-03-05T01:40:37.493760","MEAN_MOTION":15.53491621,"ECCENTRICITY":0.0010898,"INCLINATION":51.6301,"RA_OF_ASC_NODE":94.5596,"ARG_OF_PERICENTER":160.3519,"MEAN_ANOMALY":199.7893,"EPHEMERIS_TYPE":0,"CLASSIFICATION_TYPE":"U","NORAD_CAT_ID":67684,"ELEMENT_SET_NO":999,"REV_AT_EPOCH":407,"BSTAR":0.0012232,"MEAN_MOTION_DOT":0.00079615,"MEAN_MOTION_DDOT":0},{"OBJECT_NAME":"CORAL","OBJECT_ID":"1998-067YB","EPOCH":"2026-03-05T02:05:11.189184","MEAN_MOTION":15.51717466,"ECCENTRICITY":0.0011365,"INCLINATION":51.6309,"RA_OF_ASC_NODE":94.6739,"ARG_OF_PERICENTER":166.7274,"MEAN_ANOMALY":193.4017,"EPHEMERIS_TYPE":0,"CLASSIFICATION_TYPE":"U","NORAD_CAT_ID":67685,"ELEMENT_SET_NO":999,"REV_AT_EPOCH":407,"BSTAR":0.00078666,"MEAN_MOTION_DOT":0.00047663,"MEAN_MOTION_DDOT":0},{"OBJECT_NAME":"ISS OBJECT YC","OBJECT_ID":"1998-067YC","EPOCH":"2026-03-05T01:59:19.055616","MEAN_MOTION":15.52157473,"ECCENTRICITY":0.0007744,"INCLINATION":51.6311,"RA_OF_ASC_NODE":94.6478,"ARG_OF_PERICENTER":134.4448,"MEAN_ANOMALY":225.7176,"EPHEMERIS_TYPE":0,"CLASSIFICATION_TYPE":"U","NORAD_CAT_ID":67686,"ELEMENT_SET_NO":999,"REV_AT_EPOCH":407,"BSTAR":0.00090337,"MEAN_MOTION_DOT":0.00055661,"MEAN_MOTION_DDOT":0},{"OBJECT_NAME":"LEOPARD","OBJECT_ID":"1998-067YD","EPOCH":"2026-03-04T07:34:28.800768","MEAN_MOTION":15.51484974,"ECCENTRICITY":0.00077812,"INCLINATION":51.6306,"RA_OF_ASC_NODE":98.5236,"ARG_OF_PERICENTER":136.2386,"MEAN_ANOMALY":223.9221,"EPHEMERIS_TYPE":0,"CLASSIFICATION_TYPE":"U","NORAD_CAT_ID":67687,"ELEMENT_SET_NO":999,"REV_AT_EPOCH":387,"BSTAR":0.00094368384,"MEAN_MOTION_DOT":0.00056781,"MEAN_MOTION_DDOT":0},{"OBJECT_NAME":"ISS OBJECT YE","OBJECT_ID":"1998-067YE","EPOCH":"2026-03-04T12:07:23.752992","MEAN_MOTION":15.51890022,"ECCENTRICITY":0.00077863,"INCLINATION":51.6315,"RA_OF_ASC_NODE":97.5383,"ARG_OF_PERICENTER":134.731,"MEAN_ANOMALY":225.4314,"EPHEMERIS_TYPE":0,"CLASSIFICATION_TYPE":"U","NORAD_CAT_ID":67688,"ELEMENT_SET_NO":999,"REV_AT_EPOCH":390,"BSTAR":0.0010599088,"MEAN_MOTION_DOT":0.00064836,"MEAN_MOTION_DDOT":0}]
